SOYUZ-MS 28             
1 66664U 25275A   25362.85596044  .00017513  00000+0  31501-3 0  9997
2 66664  51.6321  62.6585 0003274 316.0949  43.9780 15.49919671  1282
1998-067XS              
1 66906U 98067XS  25362.19312282  .00034866  00000+0  58581-3 0  9999
2 66906  51.6324  65.7333 0002613 281.7047  78.3649 15.51427236  4016
1998-067XT              
1 66907U 98067XT  25362.88388586  .00090579  00000+0  13882-2 0  9993
2 66907  51.6314  62.0963 0003849 327.1826  32.8925 15.53558854  4124
1998-067XU              
1 66908U 98067XU  25362.88270316  .00077397  00000+0  11893-2 0  9998
2 66908  51.6310  62.0877 0003933 323.7931  36.2792 15.53556067  4122
SILVERSAT               
1 66909U 98067XV  25362.88034630  .00099141  00000+0  14962-2 0  9997
2 66909  51.6305  62.0720 0003938 330.5413  29.5355 15.53938859  4123
1998-067XW              
1 66910U 98067XW  25362.87895263  .00090062  00000+0  13684-2 0  9998
2 66910  51.6305  62.0627 0003591 300.2223  59.8411 15.53800298  4123
1998-067XX              
1 66911U 98067XX  25362.87373182  .00110783  00000+0  16383-2 0  9992
2 66911  51.6302  62.0283 0003332 311.4329  48.6375 15.54443856  4111
1998-067XY              
1 66912U 98067XY  25362.37544862  .00062303  00000+0  99000-3 0  9995
2 66912  51.6317  64.7007 0003839 312.2121  47.8542 15.52721713  4039
